[ {"CCSDS_OMM_VERS": "3.0", "COMMENT": "GENERATED VIA SPACE-TRACK.ORG API", "CREATION_DATE": "2020-01-25T14:20:16", "ORIGINATOR": "18 SPCS", "OBJECT_NAME": "OPS-SAT", "OBJECT_ID": "2019-092F", "CENTER_NAME": "EARTH", "REF_FRAME": "TEME", "TIME_SYSTEM": "UTC", "MEAN_ELEMENT_THEORY": "SGP4", "EPOCH": "2020-01-25T06:50:28.380480", "MEAN_MOTION": "15.15219157", "ECCENTRICITY": "0.00152320", "INCLINATION": "97.4653", "RA_OF_ASC_NODE": "211.0514", "ARG_OF_PERICENTER": "131.2991", "MEAN_ANOMALY": "228.9583", "EPHEMERIS_TYPE": "0", "CLASSIFICATION_TYPE": "U", "NORAD_CAT_ID": "44878", "ELEMENT_SET_NO": "999", "REV_AT_EPOCH": "570", "BSTAR": "0.00000000000000", "MEAN_MOTION_DOT": "-0.00000066", "MEAN_MOTION_DDOT": "0.0000000000000", "SEMIMAJOR_AXIS": "6898.450", "PERIOD": "95.035", "APOAPSIS": "530.823", "PERIAPSIS": "509.807", "OBJECT_TYPE": "PAYLOAD", "RCS_SIZE": "SMALL", "COUNTRY_CODE": "ESA", "LAUNCH_DATE": "2019-12-18", "SITE": "FRGUI", "DECAY_DATE": null, "FILE": "2689708", "GP_ID": "147311879", "TLE_LINE0": "0 OPS-SAT", "TLE_LINE1": "1 44878U 19092F   20025.28505070 -.00000066  00000-0  00000+0 0  9990", "TLE_LINE2": "2 44878  97.4653 211.0514 0015232 131.2991 228.9583 15.15219157  5706"}, {"CCSDS_OMM_VERS": "3.0", "COMMENT": "GENERATED VIA SPACE-TRACK.ORG API", "CREATION_DATE": "2020-01-26T18:04:09", "ORIGINATOR": "18 SPCS", "OBJECT_NAME": "OPS-SAT", "OBJECT_ID": "2019-092F", "CENTER_NAME": "EARTH", "REF_FRAME": "TEME", "TIME_SYSTEM": "UTC", "MEAN_ELEMENT_THEORY": "SGP4", "EPOCH": "2020-01-26T05:01:49.077984", "MEAN_MOTION": "15.15220012", "ECCENTRICITY": "0.00153820", "INCLINATION": "97.4638", "RA_OF_ASC_NODE": "211.9587", "ARG_OF_PERICENTER": "128.7416", "MEAN_ANOMALY": "231.5212", "EPHEMERIS_TYPE": "0", "CLASSIFICATION_TYPE": "U", "NORAD_CAT_ID": "44878", "ELEMENT_SET_NO": "999", "REV_AT_EPOCH": "584", "BSTAR": "0.00000000000000", "MEAN_MOTION_DOT": "-0.00000066", "MEAN_MOTION_DDOT": "0.0000000000000", "SEMIMAJOR_AXIS": "6898.447", "PERIOD": "95.035", "APOAPSIS": "530.923", "PERIAPSIS": "509.701", "OBJECT_TYPE": "PAYLOAD", "RCS_SIZE": "SMALL", "COUNTRY_CODE": "ESA", "LAUNCH_DATE": "2019-12-18", "SITE": "FRGUI", "DECAY_DATE": null, "FILE": "2690363", "GP_ID": "147366330", "TLE_LINE0": "0 OPS-SAT", "TLE_LINE1": "1 44878U 19092F   20026.20959581 -.00000066 +00000-0 +00000-0 0  9994", "TLE_LINE2": "2 44878 097.4638 211.9587 0015382 128.7416 231.5212 15.15220012005843"}, {"CCSDS_OMM_VERS": "3.0", "COMMENT": "GENERATED VIA SPACE-TRACK.ORG API", "CREATION_DATE": "2020-01-26T22:20:16", "ORIGINATOR": "18 SPCS", "OBJECT_NAME": "OPS-SAT", "OBJECT_ID": "2019-092F", "CENTER_NAME": "EARTH", "REF_FRAME": "TEME", "TIME_SYSTEM": "UTC", "MEAN_ELEMENT_THEORY": "SGP4", "EPOCH": "2020-01-26T12:57:17.919936", "MEAN_MOTION": "15.15220787", "ECCENTRICITY": "0.00155970", "INCLINATION": "97.4628", "RA_OF_ASC_NODE": "212.2828", "ARG_OF_PERICENTER": "128.3977", "MEAN_ANOMALY": "231.8751", "EPHEMERIS_TYPE": "0", "CLASSIFICATION_TYPE": "U", "NORAD_CAT_ID": "44878", "ELEMENT_SET_NO": "999", "REV_AT_EPOCH": "589", "BSTAR": "0.00000000000000", "MEAN_MOTION_DOT": "-0.00000066", "MEAN_MOTION_DDOT": "0.0000000000000", "SEMIMAJOR_AXIS": "6898.445", "PERIOD": "95.035", "APOAPSIS": "531.069", "PERIAPSIS": "509.550", "OBJECT_TYPE": "PAYLOAD", "RCS_SIZE": "SMALL", "COUNTRY_CODE": "ESA", "LAUNCH_DATE": "2019-12-18", "SITE": "FRGUI", "DECAY_DATE": null, "FILE": "2690390", "GP_ID": "147366716", "TLE_LINE0": "0 OPS-SAT", "TLE_LINE1": "1 44878U 19092F   20026.53979074 -.00000066  00000-0  00000+0 0  9998", "TLE_LINE2": "2 44878  97.4628 212.2828 0015597 128.3977 231.8751 15.15220787  5895"}, {"CCSDS_OMM_VERS": "3.0", "COMMENT": "GENERATED VIA SPACE-TRACK.ORG API", "CREATION_DATE": "2020-01-27T17:45:22", "ORIGINATOR": "18 SPCS", "OBJECT_NAME": "OPS-SAT", "OBJECT_ID": "2019-092F", "CENTER_NAME": "EARTH", "REF_FRAME": "TEME", "TIME_SYSTEM": "UTC", "MEAN_ELEMENT_THEORY": "SGP4", "EPOCH": "2020-01-27T01:38:03.943680", "MEAN_MOTION": "15.15220969", "ECCENTRICITY": "0.00156420", "INCLINATION": "97.4631", "RA_OF_ASC_NODE": "212.8015", "ARG_OF_PERICENTER": "126.9865", "MEAN_ANOMALY": "233.2831", "EPHEMERIS_TYPE": "0", "CLASSIFICATION_TYPE": "U", "NORAD_CAT_ID": "44878", "ELEMENT_SET_NO": "999", "REV_AT_EPOCH": "597", "BSTAR": "0.00000000000000", "MEAN_MOTION_DOT": "-0.00000066", "MEAN_MOTION_DDOT": "0.0000000000000", "SEMIMAJOR_AXIS": "6898.444", "PERIOD": "95.035", "APOAPSIS": "531.100", "PERIAPSIS": "509.519", "OBJECT_TYPE": "PAYLOAD", "RCS_SIZE": "SMALL", "COUNTRY_CODE": "ESA", "LAUNCH_DATE": "2019-12-18", "SITE": "FRGUI", "DECAY_DATE": null, "FILE": "2690976", "GP_ID": "147433890", "TLE_LINE0": "0 OPS-SAT", "TLE_LINE1": "1 44878U 19092F   20027.06810120 -.00000066 +00000-0 +00000-0 0  9994", "TLE_LINE2": "2 44878 097.4631 212.8015 0015642 126.9865 233.2831 15.15220969005970"}, {"CCSDS_OMM_VERS": "3.0", "COMMENT": "GENERATED VIA SPACE-TRACK.ORG API", "CREATION_DATE": "2020-01-28T02:48:37", "ORIGINATOR": "18 SPCS", "OBJECT_NAME": "OPS-SAT", "OBJECT_ID": "2019-092F", "CENTER_NAME": "EARTH", "REF_FRAME": "TEME", "TIME_SYSTEM": "UTC", "MEAN_ELEMENT_THEORY": "SGP4", "EPOCH": "2020-01-27T12:43:44.241888", "MEAN_MOTION": "15.15221363", "ECCENTRICITY": "0.00155810", "INCLINATION": "97.4633", "RA_OF_ASC_NODE": "213.2557", "ARG_OF_PERICENTER": "125.6631", "MEAN_ANOMALY": "234.6074", "EPHEMERIS_TYPE": "0", "CLASSIFICATION_TYPE": "U", "NORAD_CAT_ID": "44878", "ELEMENT_SET_NO": "999", "REV_AT_EPOCH": "604", "BSTAR": "0.00000000000000", "MEAN_MOTION_DOT": "-0.00000066", "MEAN_MOTION_DDOT": "0.0000000000000", "SEMIMAJOR_AXIS": "6898.443", "PERIOD": "95.035", "APOAPSIS": "531.057", "PERIAPSIS": "509.560", "OBJECT_TYPE": "PAYLOAD", "RCS_SIZE": "SMALL", "COUNTRY_CODE": "ESA", "LAUNCH_DATE": "2019-12-18", "SITE": "FRGUI", "DECAY_DATE": null, "FILE": "2691141", "GP_ID": "147456555", "TLE_LINE0": "0 OPS-SAT", "TLE_LINE1": "1 44878U 19092F   20027.53037317 -.00000066 +00000-0 +00000-0 0  9995", "TLE_LINE2": "2 44878 097.4633 213.2557 0015581 125.6631 234.6074 15.15221363006049"}, {"CCSDS_OMM_VERS": "3.0", "COMMENT": "GENERATED VIA SPACE-TRACK.ORG API", "CREATION_DATE": "2020-01-28T06:20:14", "ORIGINATOR": "18 SPCS", "OBJECT_NAME": "OPS-SAT", "OBJECT_ID": "2019-092F", "CENTER_NAME": "EARTH", "REF_FRAME": "TEME", "TIME_SYSTEM": "UTC", "MEAN_ELEMENT_THEORY": "SGP4", "EPOCH": "2020-01-27T23:49:24.591936", "MEAN_MOTION": "15.15221756", "ECCENTRICITY": "0.00156330", "INCLINATION": "97.4630", "RA_OF_ASC_NODE": "213.7102", "ARG_OF_PERICENTER": "123.8665", "MEAN_ANOMALY": "236.4087", "EPHEMERIS_TYPE": "0", "CLASSIFICATION_TYPE": "U", "NORAD_CAT_ID": "44878", "ELEMENT_SET_NO": "999", "REV_AT_EPOCH": "611", "BSTAR": "0.00000000000000", "MEAN_MOTION_DOT": "-0.00000066", "MEAN_MOTION_DDOT": "0.0000000000000", "SEMIMAJOR_AXIS": "6898.442", "PERIOD": "95.035", "APOAPSIS": "531.091", "PERIAPSIS": "509.523", "OBJECT_TYPE": "PAYLOAD", "RCS_SIZE": "SMALL", "COUNTRY_CODE": "ESA", "LAUNCH_DATE": "2019-12-18", "SITE": "FRGUI", "DECAY_DATE": null, "FILE": "2691162", "GP_ID": "147476456", "TLE_LINE0": "0 OPS-SAT", "TLE_LINE1": "1 44878U 19092F   20027.99264574 -.00000066  00000-0  00000+0 0  9991", "TLE_LINE2": "2 44878  97.4630 213.7102 0015633 123.8665 236.4087 15.15221756  6110"}, {"CCSDS_OMM_VERS": "3.0", "COMMENT": "GENERATED VIA SPACE-TRACK.ORG API", "CREATION_DATE": "2020-01-28T18:30:32", "ORIGINATOR": "18 SPCS", "OBJECT_NAME": "OPS-SAT", "OBJECT_ID": "2019-092F", "CENTER_NAME": "EARTH", "REF_FRAME": "TEME", "TIME_SYSTEM": "UTC", "MEAN_ELEMENT_THEORY": "SGP4", "EPOCH": "2020-01-28T06:09:47.614176", "MEAN_MOTION": "15.15222220", "ECCENTRICITY": "0.00158770", "INCLINATION": "97.4635", "RA_OF_ASC_NODE": "213.9706", "ARG_OF_PERICENTER": "123.9132", "MEAN_ANOMALY": "236.3696", "EPHEMERIS_TYPE": "0", "CLASSIFICATION_TYPE": "U", "NORAD_CAT_ID": "44878", "ELEMENT_SET_NO": "999", "REV_AT_EPOCH": "615", "BSTAR": "0.00000000000000", "MEAN_MOTION_DOT": "-0.00000066", "MEAN_MOTION_DDOT": "0.0000000000000", "SEMIMAJOR_AXIS": "6898.441", "PERIOD": "95.035", "APOAPSIS": "531.258", "PERIAPSIS": "509.353", "OBJECT_TYPE": "PAYLOAD", "RCS_SIZE": "SMALL", "COUNTRY_CODE": "ESA", "LAUNCH_DATE": "2019-12-18", "SITE": "FRGUI", "DECAY_DATE": null, "FILE": "2691543", "GP_ID": "147504373", "TLE_LINE0": "0 OPS-SAT", "TLE_LINE1": "1 44878U 19092F   20028.25680109 -.00000066 +00000-0 +00000-0 0  9998", "TLE_LINE2": "2 44878 097.4635 213.9706 0015877 123.9132 236.3696 15.15222220006153"}, {"CCSDS_OMM_VERS": "3.0", "COMMENT": "GENERATED VIA SPACE-TRACK.ORG API", "CREATION_DATE": "2020-01-29T02:12:46", "ORIGINATOR": "18 SPCS", "OBJECT_NAME": "OPS-SAT", "OBJECT_ID": "2019-092F", "CENTER_NAME": "EARTH", "REF_FRAME": "TEME", "TIME_SYSTEM": "UTC", "MEAN_ELEMENT_THEORY": "SGP4", "EPOCH": "2020-01-28T14:05:16.309248", "MEAN_MOTION": "15.15222384", "ECCENTRICITY": "0.00158580", "INCLINATION": "97.4634", "RA_OF_ASC_NODE": "214.2948", "ARG_OF_PERICENTER": "122.6768", "MEAN_ANOMALY": "237.6007", "EPHEMERIS_TYPE": "0", "CLASSIFICATION_TYPE": "U", "NORAD_CAT_ID": "44878", "ELEMENT_SET_NO": "999", "REV_AT_EPOCH": "620", "BSTAR": "0.00000000000000", "MEAN_MOTION_DOT": "-0.00000066", "MEAN_MOTION_DDOT": "0.0000000000000", "SEMIMAJOR_AXIS": "6898.440", "PERIOD": "95.035", "APOAPSIS": "531.245", "PERIAPSIS": "509.365", "OBJECT_TYPE": "PAYLOAD", "RCS_SIZE": "SMALL", "COUNTRY_CODE": "ESA", "LAUNCH_DATE": "2019-12-18", "SITE": "FRGUI", "DECAY_DATE": null, "FILE": "2691723", "GP_ID": "147605440", "TLE_LINE0": "0 OPS-SAT", "TLE_LINE1": "1 44878U 19092F   20028.58699432 -.00000066 +00000-0 +00000-0 0  9993", "TLE_LINE2": "2 44878 097.4634 214.2948 0015858 122.6768 237.6007 15.15222384006201"}]